STARLINK-11089 [DTC]    
1 59426U 24065F   24123.45953815 -.00009312  00000+0 -66939-4 0  9998
2 59426  53.1579 196.2739 0001319  78.7182 281.3985 15.71437884  5191
STARLINK-31757          
1 59427U 24065G   24123.47779819  .00058036  00000+0  13024-2 0  9991
2 59427  53.1576 200.0014 0001791  56.3984 303.7193 15.42854319  5144
STARLINK-31752          
1 59428U 24065H   24123.48825086  .00132084  00000+0  22328-2 0  9994
2 59428  53.1566 199.3517 0002765  40.9018 319.2198 15.50672026  5151
STARLINK-31773          
1 59429U 24065J   24123.52833505  .00024196  00000+0  55127-3 0  9993
2 59429  53.1584 199.6035 0001910  64.4935 295.6269 15.42828422  5150
STARLINK-31772          
1 59430U 24065K   24123.58334491  .00013258  00000+0  30709-3 0  9997
2 59430  53.1597 198.9838 0000856 101.2055  25.0187 15.42791062  5164
STARLINK-31613          
1 59431U 24065L   24123.51941384 -.00042190  00000+0 -94607-3 0  9992
2 59431  53.1593 199.5476 0001697  93.6819 266.4381 15.42758953  5150
STARLINK-31780          
1 59432U 24065M   24123.48928587 -.00122426  00000+0 -22454-2 0  9990
2 59432  53.1579 199.3555 0001811 114.9869 245.1329 15.49083325  5158
STARLINK-31740          
1 59433U 24065N   24123.21370968  .00015248  00000+0  35123-3 0  9995
2 59433  53.1589 201.1980 0003351  68.5644 291.5720 15.42828111  5108
STARLINK-31580          
1 59434U 24065P   24123.20906424  .00018617  00000+0  42624-3 0  9994
2 59434  53.1569 201.1672 0003562  86.1308 274.0105 15.42853028  5100
STARLINK-31696          
1 59435U 24065Q   24123.51477942  .00074107  00000+0  16629-2 0  9998
2 59435  53.1575 199.5169 0000676 162.9797 197.1232 15.42749065  5153
STARLINK-31700          
1 59436U 24065R   24123.58334491 -.00014381  00000+0 -31416-3 0  9999
2 59436  53.1587 199.0397 0000552  16.6770  81.7906 15.42855113  5163
STARLINK-31706          
1 59437U 24065S   24123.52402710  .00036192  00000+0  81857-3 0  9990
2 59437  53.1585 199.5729 0002111 119.2911 240.8306 15.42832870  5152
STARLINK-31711          
1 59438U 24065T   24122.91668981  .00019109  00000+0  43778-3 0  9996
2 59438  53.1585 202.2466 0001247 111.1592 216.7582 15.42817229  5067
STARLINK-31708          
1 59439U 24065U   24123.58334491 -.00073951  00000+0 -16692-2 0  9998
2 59439  53.1599 198.9360 0001076  84.4098  65.7803 15.42813991  5161
STARLINK-31682          
1 59440U 24065V   24123.48054461  .00038622  00000+0  27765-3 0  9993
2 59440  53.1531 196.3998 0001699  38.0074 322.1065 15.73255857  5196
STARLINK-31693          
1 59441U 24065W   24123.48606664  .00067619  00000+0  12109-2 0  9995
2 59441  53.1569 199.3366 0001170  84.4195 275.6948 15.49366350  5155
TSAT-1A                 
1 59442U 24066A   24123.54499341  .00002736  00000+0  28910-3 0  9993
2 59442  45.6096 308.9296 0005902 233.3128 126.7208 14.91726912  3664
HAWK-8A                 
1 59443U 24066B   24123.00284290  .00002658  00000+0  27757-3 0  9991
2 59443  45.6044 311.6147 0006174 246.4058 113.6172 14.92291242  3583
CAPELLA-14 (ACADIA)     
1 59444U 24066C   24123.53766919  .00011497  00000+0  11278-2 0  9994
2 59444  45.6088 308.8763 0007251 255.1431 104.8645 14.92348168  3658
HAWK-8B                 
1 59445U 24066D   24123.20483187  .00002230  00000+0  23665-3 0  9991
2 59445  45.6189 310.6205 0006247 246.2444 113.7780 14.92229875  3609
HAWK-9A                 
1 59446U 24066E   24123.20245192  .00001987  00000+0  21247-3 0  9996
2 59446  45.6110 310.5932 0006072 249.2235 110.7993 14.92362299  3608
QPS-SAR-7 (TSUKUYOMI-II)
1 59447U 24066F   24123.53517757  .00005403  00000+0  54036-3 0  9991
2 59447  45.6099 308.8668 0005156 254.9097 105.1211 14.92446780  3656
HAWK-9C                 
1 59448U 24066G   24123.53786439 -.00001833  00000+0 -15603-3 0  9999
2 59448  45.6071 308.8771 0006349 243.5975 116.4253 14.92294276  3658
HAWK-8C                 
1 59449U 24066H   24123.20277855  .00002002  00000+0  21529-3 0  9992
2 59449  45.6090 310.5853 0005049 257.7651 102.2662 14.92100224  3606
HAWK-9B                 
1 59450U 24066J   24123.53760254  .00001899  00000+0  20425-3 0  9997
2 59450  45.6213 308.8942 0005897 244.0590 115.9681 14.92318211  3650
CENTAURI-6              
1 59451U 24066K   24122.92746147  .00005558  00000+0  55107-3 0  9996
2 59451  45.6064 311.8977 0005991 269.8470  90.1722 14.92748132  3574
425SAT-1                
1 59452U 24066L   24123.54831084  .00005887  00000+0  48633-3 0  9992
2 59452  45.4144 306.4334 0005154 137.7461 222.3815 14.99841553  3674
STARLINK-31617          
1 59455U 24068A   24123.25002315 -.00055884  00000+0 -95227-3 0  9997
2 59455  43.0000 287.4843 0001819 270.7836   5.8554 15.50615571  4697
STARLINK-31622          
1 59456U 24068B   24123.58334491 -.00016203  00000+0 -27080-3 0  9991
2 59456  42.9999 285.5272 0001675 270.5686  72.7741 15.50592394  4743
STARLINK-31319          
1 59457U 24068C   24123.58334491 -.02094426  00000+0 -40716-1 0  9996
2 59457  42.9998 285.5320 0001808 273.0065  68.4247 15.50213280  4741
STARLINK-31625          
1 59458U 24068D   24123.58334491 -.00106861  00000+0 -18361-2 0  9994
2 59458  43.0000 285.5224 0001808 272.8733  72.3683 15.50646704  4750
STARLINK-31631          
1 59459U 24068E   24123.58334491 -.00299438  00000+0 -74030-2 0  9993
2 59459  42.9997 285.5975 0001263 282.1282  32.0110 15.40872904  4744
STARLINK-31620          
1 59460U 24068F   24123.25002315  .00059617  00000+0  10145-2 0  9994
2 59460  43.0003 287.4600 0001799 276.3523   9.8748 15.50573179  4695
STARLINK-31482          
1 59461U 24068G   24123.25002315 -.00905604  00000+0 -55942-2 0  9997
2 59461  42.9977 284.7998 0001286 268.5399   5.2502 15.78581412  4719
STARLINK-31511          
1 59462U 24068H   24123.25002315 -.00078790  00000+0 -13479-2 0  9994
2 59462  43.0003 287.4446 0001933 258.0672  33.9266 15.50636628  4699
STARLINK-31364          
1 59463U 24068J   24123.25002315 -.02178364  00000+0 -47638-1 0  9998
2 59463  43.0005 287.4616 0001454 264.4893  20.7765 15.47040926  4699
STARLINK-31597          
1 59464U 24068K   24123.25002315 -.00046605  00000+0 -79187-3 0  9995
2 59464  43.0003 287.4393 0002159 260.6049  33.2985 15.50627694  4638
STARLINK-31621          
1 59465U 24068L   24123.25002315 -.00083890  00000+0 -14365-2 0  9999
2 59465  43.0003 287.4349 0001886 259.0939  36.7505 15.50635670  4691
STARLINK-31462          
1 59466U 24068M   24123.25002315 -.02179117  00000+0 -43577-1 0  9996
2 59466  43.0002 286.7865 0001286 257.2809 299.4068 15.49571800  4702
STARLINK-31592          
1 59467U 24068N   24123.25002315 -.00049865  00000+0 -84833-3 0  9993
2 59467  43.0003 287.4246 0001776 265.9914  33.6958 15.50619051  4699
STARLINK-31267          
1 59468U 24068P   24123.58334491 -.00027727  00000+0 -46816-3 0  9995
2 59468  43.0000 285.4725 0002199 261.2821 103.2027 15.50595510  4743
STARLINK-31381          
1 59469U 24068Q   24123.58334491  .00002342  00000+0  45724-4 0  9998
2 59469  43.0001 285.4675 0001788 290.1828  76.2121 15.50589850  4744
STARLINK-31546          
1 59470U 24068R   24123.25002315 -.02173359  00000+0 -48164-1 0  9990
2 59470  43.0003 287.4243 0001626 254.7005  44.8265 15.46651070  4698
STARLINK-31575          
1 59471U 24068S   24123.58334491 -.02164910  00000+0 -42983-1 0  9996
2 59471  43.0001 285.4583 0001565 273.9542  96.0483 15.49745876  4741
STARLINK-31375          
1 59472U 24068T   24123.58334491 -.00173118  00000+0 -29964-2 0  9990
2 59472  43.0000 285.4479 0002199 252.5063 121.5085 15.50709699  4747
STARLINK-31610          
1 59473U 24068U   24123.25002315 -.00044307  00000+0 -75257-3 0  9996
2 59473  43.0003 287.4001 0002093 258.0810  51.2111 15.50618814  4699
STARLINK-31581          
1 59474U 24068V   24123.58334491 -.00063144  00000+0 -10779-2 0  9993
2 59474  43.0000 285.4433 0001793 260.7330 115.2816 15.50611506  4747
STARLINK-31566          
1 59475U 24068W   24123.25002315  .00093473  00000+0  15827-2 0  9990
2 59475  43.0003 287.3857 0001866 273.1582  41.9340 15.50533519  4698
STARLINK-31515          
1 59476U 24068X   24123.25002315 -.00024247  00000+0 -40839-3 0  9998
2 59476  43.0003 287.3808 0001745 261.5193  55.4711 15.50602863  4691
STARLINK-31531          
1 59477U 24068Y   24123.25002315 -.00093512  00000+0 -16034-2 0  9999
2 59477  43.0003 287.3758 0001899 261.6899  57.2097 15.50644319  4699
DUMMY SAT 3             
1 59479U 24069A   24122.38870383 -.00000176  00000+0  00000+0 0  9999
2 59479   0.0866  74.5854 0048643 124.1395 161.0993  0.98609066   147
WSF-M                   
1 59481U 24070A   24122.79012095  .00000109  00000+0  70967-4 0  9996
2 59481  98.7197 130.2842 0005655  50.3735 309.7941 14.20467053  2865
MICROORBITER-1          
1 59483U 98067WF  24122.90260359  .00070292  00000+0  10259-2 0  9992
2 59483  51.6354 184.5359 0002676  80.0693 280.0600 15.55013995  3256
STARLINK-31753          
1 59484U 24071A   24123.16667824 -.01731176  00000+0 -22853-1 0  9994
2 59484  42.9994 246.8098 0001629 269.7382 103.3632 15.60501532  4168
STARLINK-31653          
1 59485U 24071B   24123.25002315 -.01717948  00000+0 -22947-1 0  9998
2 59485  42.9992 246.3103 0001226 276.3501 207.4355 15.60178440  4187
STARLINK-31733          
1 59486U 24071C   24123.50001157 -.01756582  00000+0 -24368-1 0  9996
2 59486  42.9991 244.8251 0001324 290.8064 160.2886 15.59264652  4227
STARLINK-31657          
1 59487U 24071D   24123.16667824 -.01730807  00000+0 -22862-1 0  9997
2 59487  42.9994 246.7851 0001735 273.7141 109.1597 15.60484233  4211
STARLINK-31754          
1 59488U 24071E   24123.16667824 -.01729885  00000+0 -22846-1 0  9994
2 59488  42.9995 246.7948 0001445 274.4169 104.5540 15.60489705  4212
